[{"OBJECT_NAME":"STARLINK-3589","OBJECT_ID":"2022-025AT","EPOCH":"2026-01-31T17:02:59.107776","MEAN_MOTION":15.08836977,"ECCENTRICITY":0.00012885,"INCLINATION":53.2172,"RA_OF_ASC_NODE":185.1281,"ARG_OF_PERICENTER":99.2511,"MEAN_ANOMALY":260.8627,"EPHEMERIS_TYPE":0,"CLASSIFICATION_TYPE":"U","NORAD_CAT_ID":51997,"ELEMENT_SET_NO":999,"REV_AT_EPOCH":21532,"BSTAR":3.2548664e-5,"MEAN_MOTION_DOT":2.3e-6,"MEAN_MOTION_DDOT":0},{"OBJECT_NAME":"STARLINK-3618","OBJECT_ID":"2022-025AU","EPOCH":"2026-01-31T19:15:28.916928","MEAN_MOTION":15.08821352,"ECCENTRICITY":0.00012687,"INCLINATION":53.217,"RA_OF_ASC_NODE":184.7126,"ARG_OF_PERICENTER":88.7765,"MEAN_ANOMALY":271.3372,"EPHEMERIS_TYPE":0,"CLASSIFICATION_TYPE":"U","NORAD_CAT_ID":51998,"ELEMENT_SET_NO":999,"REV_AT_EPOCH":21535,"BSTAR":0.00013888636,"MEAN_MOTION_DOT":1.922e-5,"MEAN_MOTION_DDOT":0},{"OBJECT_NAME":"STARLINK-3653","OBJECT_ID":"2022-025AW","EPOCH":"2026-01-31T15:43:28.662240","MEAN_MOTION":15.08824431,"ECCENTRICITY":0.00011247,"INCLINATION":53.2157,"RA_OF_ASC_NODE":185.2858,"ARG_OF_PERICENTER":96.8473,"MEAN_ANOMALY":263.2647,"EPHEMERIS_TYPE":0,"CLASSIFICATION_TYPE":"U","NORAD_CAT_ID":52000,"ELEMENT_SET_NO":999,"REV_AT_EPOCH":21533,"BSTAR":-0.00019551377,"MEAN_MOTION_DOT":-3.397e-5,"MEAN_MOTION_DDOT":0},{"OBJECT_NAME":"STARLINK-3659","OBJECT_ID":"2022-025AX","EPOCH":"2026-01-31T19:11:32.945568","MEAN_MOTION":15.08840564,"ECCENTRICITY":0.00012774,"INCLINATION":53.2167,"RA_OF_ASC_NODE":184.7362,"ARG_OF_PERICENTER":87.953,"MEAN_ANOMALY":272.1608,"EPHEMERIS_TYPE":0,"CLASSIFICATION_TYPE":"U","NORAD_CAT_ID":52001,"ELEMENT_SET_NO":999,"REV_AT_EPOCH":21535,"BSTAR":3.9477939e-5,"MEAN_MOTION_DOT":3.4e-6,"MEAN_MOTION_DDOT":0},{"OBJECT_NAME":"STARLINK-3668","OBJECT_ID":"2022-025AY","EPOCH":"2026-01-31T19:10:10.624512","MEAN_MOTION":15.08837065,"ECCENTRICITY":9.786e-5,"INCLINATION":53.2175,"RA_OF_ASC_NODE":184.7704,"ARG_OF_PERICENTER":96.3379,"MEAN_ANOMALY":263.7724,"EPHEMERIS_TYPE":0,"CLASSIFICATION_TYPE":"U","NORAD_CAT_ID":52002,"ELEMENT_SET_NO":999,"REV_AT_EPOCH":21535,"BSTAR":2.806734e-5,"MEAN_MOTION_DOT":1.59e-6,"MEAN_MOTION_DDOT":0},{"OBJECT_NAME":"STARLINK-3712","OBJECT_ID":"2022-029C","EPOCH":"2026-01-31T20:25:40.025280","MEAN_MOTION":15.08838206,"ECCENTRICITY":0.00014121,"INCLINATION":53.2149,"RA_OF_ASC_NODE":254.4996,"ARG_OF_PERICENTER":109.129,"MEAN_ANOMALY":250.9855,"EPHEMERIS_TYPE":0,"CLASSIFICATION_TYPE":"U","NORAD_CAT_ID":52090,"ELEMENT_SET_NO":999,"REV_AT_EPOCH":21509,"BSTAR":0.00036695452,"MEAN_MOTION_DOT":5.557e-5,"MEAN_MOTION_DDOT":0},{"OBJECT_NAME":"STARLINK-3716","OBJECT_ID":"2022-029E","EPOCH":"2026-01-31T22:06:22.474080","MEAN_MOTION":15.08832404,"ECCENTRICITY":0.000136,"INCLINATION":53.2159,"RA_OF_ASC_NODE":254.183,"ARG_OF_PERICENTER":90.0226,"MEAN_ANOMALY":270.0922,"EPHEMERIS_TYPE":0,"CLASSIFICATION_TYPE":"U","NORAD_CAT_ID":52092,"ELEMENT_SET_NO":999,"REV_AT_EPOCH":21510,"BSTAR":2.2108397e-5,"MEAN_MOTION_DOT":6.4e-7,"MEAN_MOTION_DDOT":0},{"OBJECT_NAME":"STARLINK-3673","OBJECT_ID":"2022-029F","EPOCH":"2026-01-31T21:51:50.928768","MEAN_MOTION":15.0884574,"ECCENTRICITY":0.00014354,"INCLINATION":53.2168,"RA_OF_ASC_NODE":254.2396,"ARG_OF_PERICENTER":93.9997,"MEAN_ANOMALY":266.1159,"EPHEMERIS_TYPE":0,"CLASSIFICATION_TYPE":"U","NORAD_CAT_ID":52093,"ELEMENT_SET_NO":999,"REV_AT_EPOCH":21510,"BSTAR":-0.00024436982,"MEAN_MOTION_DOT":-4.176e-5,"MEAN_MOTION_DDOT":0},{"OBJECT_NAME":"STARLINK-3714","OBJECT_ID":"2022-029G","EPOCH":"2026-01-31T23:31:10.033536","MEAN_MOTION":15.08830926,"ECCENTRICITY":0.00012331,"INCLINATION":53.2166,"RA_OF_ASC_NODE":253.9198,"ARG_OF_PERICENTER":104.372,"MEAN_ANOMALY":255.7409,"EPHEMERIS_TYPE":0,"CLASSIFICATION_TYPE":"U","NORAD_CAT_ID":52094,"ELEMENT_SET_NO":999,"REV_AT_EPOCH":21511,"BSTAR":-0.00013350583,"MEAN_MOTION_DOT":-2.411e-5,"MEAN_MOTION_DDOT":0},{"OBJECT_NAME":"STARLINK-3701","OBJECT_ID":"2022-029H","EPOCH":"2026-01-31T21:39:52.996608","MEAN_MOTION":15.0886796,"ECCENTRICITY":0.00013386,"INCLINATION":53.2167,"RA_OF_ASC_NODE":254.266,"ARG_OF_PERICENTER":88.3654,"MEAN_ANOMALY":271.7492,"EPHEMERIS_TYPE":0,"CLASSIFICATION_TYPE":"U","NORAD_CAT_ID":52095,"ELEMENT_SET_NO":999,"REV_AT_EPOCH":21510,"BSTAR":0.00081361526,"MEAN_MOTION_DOT":0.00012694,"MEAN_MOTION_DDOT":0},{"OBJECT_NAME":"STARLINK-3717","OBJECT_ID":"2022-029J","EPOCH":"2026-01-31T19:34:02.502336","MEAN_MOTION":15.08824836,"ECCENTRICITY":0.00015621,"INCLINATION":53.2166,"RA_OF_ASC_NODE":244.6582,"ARG_OF_PERICENTER":104.3083,"MEAN_ANOMALY":255.8083,"EPHEMERIS_TYPE":0,"CLASSIFICATION_TYPE":"U","NORAD_CAT_ID":52096,"ELEMENT_SET_NO":999,"REV_AT_EPOCH":21521,"BSTAR":-4.924147e-6,"MEAN_MOTION_DOT":-3.66e-6,"MEAN_MOTION_DDOT":0},{"OBJECT_NAME":"STARLINK-3665","OBJECT_ID":"2022-029L","EPOCH":"2026-01-31T21:45:11.589696","MEAN_MOTION":15.08842464,"ECCENTRICITY":0.00012566,"INCLINATION":53.2163,"RA_OF_ASC_NODE":254.2504,"ARG_OF_PERICENTER":78.8193,"MEAN_ANOMALY":281.294,"EPHEMERIS_TYPE":0,"CLASSIFICATION_TYPE":"U","NORAD_CAT_ID":52098,"ELEMENT_SET_NO":999,"REV_AT_EPOCH":21510,"BSTAR":-4.2293149e-5,"MEAN_MOTION_DOT":-9.61e-6,"MEAN_MOTION_DDOT":0},{"OBJECT_NAME":"STARLINK-3702","OBJECT_ID":"2022-029N","EPOCH":"2026-01-31T21:34:34.563360","MEAN_MOTION":15.08841735,"ECCENTRICITY":0.00015023,"INCLINATION":53.217,"RA_OF_ASC_NODE":254.2831,"ARG_OF_PERICENTER":89.7827,"MEAN_ANOMALY":270.3338,"EPHEMERIS_TYPE":0,"CLASSIFICATION_TYPE":"U","NORAD_CAT_ID":52100,"ELEMENT_SET_NO":999,"REV_AT_EPOCH":21510,"BSTAR":-3.9283839e-5,"MEAN_MOTION_DOT":-9.13e-6,"MEAN_MOTION_DDOT":0},{"OBJECT_NAME":"STARLINK-3703","OBJECT_ID":"2022-029P","EPOCH":"2026-01-31T21:50:30.230304","MEAN_MOTION":15.08828201,"ECCENTRICITY":0.00013897,"INCLINATION":53.2173,"RA_OF_ASC_NODE":254.4265,"ARG_OF_PERICENTER":88.5352,"MEAN_ANOMALY":271.58,"EPHEMERIS_TYPE":0,"CLASSIFICATION_TYPE":"U","NORAD_CAT_ID":52101,"ELEMENT_SET_NO":999,"REV_AT_EPOCH":21509,"BSTAR":6.9208989e-5,"MEAN_MOTION_DOT":8.13e-6,"MEAN_MOTION_DDOT":0},{"OBJECT_NAME":"STARLINK-3709","OBJECT_ID":"2022-029Q","EPOCH":"2026-01-31T21:37:16.595328","MEAN_MOTION":15.0883703,"ECCENTRICITY":0.00014699,"INCLINATION":53.2165,"RA_OF_ASC_NODE":244.2743,"ARG_OF_PERICENTER":92.1022,"MEAN_ANOMALY":268.0138,"EPHEMERIS_TYPE":0,"CLASSIFICATION_TYPE":"U","NORAD_CAT_ID":52102,"ELEMENT_SET_NO":999,"REV_AT_EPOCH":21523,"BSTAR":5.16032e-5,"MEAN_MOTION_DOT":5.33e-6,"MEAN_MOTION_DDOT":0},{"OBJECT_NAME":"STARLINK-3705","OBJECT_ID":"2022-029R","EPOCH":"2026-01-31T20:58:48.073728","MEAN_MOTION":15.08837775,"ECCENTRICITY":0.00011578,"INCLINATION":53.2165,"RA_OF_ASC_NODE":244.3938,"ARG_OF_PERICENTER":86.0178,"MEAN_ANOMALY":274.0947,"EPHEMERIS_TYPE":0,"CLASSIFICATION_TYPE":"U","NORAD_CAT_ID":52103,"ELEMENT_SET_NO":999,"REV_AT_EPOCH":21522,"BSTAR":3.6578925e-5,"MEAN_MOTION_DOT":2.94e-6,"MEAN_MOTION_DDOT":0},{"OBJECT_NAME":"STARLINK-3706","OBJECT_ID":"2022-029T","EPOCH":"2026-01-31T20:49:34.870080","MEAN_MOTION":15.08839175,"ECCENTRICITY":0.0001415,"INCLINATION":53.2166,"RA_OF_ASC_NODE":244.4226,"ARG_OF_PERICENTER":91.6402,"MEAN_ANOMALY":268.4752,"EPHEMERIS_TYPE":0,"CLASSIFICATION_TYPE":"U","NORAD_CAT_ID":52105,"ELEMENT_SET_NO":999,"REV_AT_EPOCH":21522,"BSTAR":3.2628825e-5,"MEAN_MOTION_DOT":2.31e-6,"MEAN_MOTION_DDOT":0},{"OBJECT_NAME":"STARLINK-3670","OBJECT_ID":"2022-029U","EPOCH":"2026-01-31T21:18:40.353984","MEAN_MOTION":15.08838818,"ECCENTRICITY":0.00014194,"INCLINATION":53.2172,"RA_OF_ASC_NODE":254.3314,"ARG_OF_PERICENTER":92.5562,"MEAN_ANOMALY":267.5592,"EPHEMERIS_TYPE":0,"CLASSIFICATION_TYPE":"U","NORAD_CAT_ID":52106,"ELEMENT_SET_NO":999,"REV_AT_EPOCH":21509,"BSTAR":4.4058335e-5,"MEAN_MOTION_DOT":4.13e-6,"MEAN_MOTION_DDOT":0},{"OBJECT_NAME":"STARLINK-3658","OBJECT_ID":"2022-029V","EPOCH":"2026-01-31T20:42:54.428544","MEAN_MOTION":15.08837021,"ECCENTRICITY":0.00015346,"INCLINATION":53.2156,"RA_OF_ASC_NODE":244.4404,"ARG_OF_PERICENTER":95.8615,"MEAN_ANOMALY":264.2552,"EPHEMERIS_TYPE":0,"CLASSIFICATION_TYPE":"U","NORAD_CAT_ID":52107,"ELEMENT_SET_NO":999,"REV_AT_EPOCH":21522,"BSTAR":2.3271892e-5,"MEAN_MOTION_DOT":8.2e-7,"MEAN_MOTION_DDOT":0},{"OBJECT_NAME":"STARLINK-3698","OBJECT_ID":"2022-029W","EPOCH":"2026-01-31T20:53:30.129504","MEAN_MOTION":15.0883868,"ECCENTRICITY":0.00014674,"INCLINATION":53.2168,"RA_OF_ASC_NODE":244.409,"ARG_OF_PERICENTER":91.0363,"MEAN_ANOMALY":269.0797,"EPHEMERIS_TYPE":0,"CLASSIFICATION_TYPE":"U","NORAD_CAT_ID":52108,"ELEMENT_SET_NO":999,"REV_AT_EPOCH":21522,"BSTAR":-1.5741257e-5,"MEAN_MOTION_DOT":-5.38e-6,"MEAN_MOTION_DDOT":0},{"OBJECT_NAME":"STARLINK-3687","OBJECT_ID":"2022-029Y","EPOCH":"2026-01-31T20:48:11.969280","MEAN_MOTION":15.08838938,"ECCENTRICITY":0.00013734,"INCLINATION":53.2166,"RA_OF_ASC_NODE":244.4259,"ARG_OF_PERICENTER":89.5164,"MEAN_ANOMALY":270.5985,"EPHEMERIS_TYPE":0,"CLASSIFICATION_TYPE":"U","NORAD_CAT_ID":52110,"ELEMENT_SET_NO":999,"REV_AT_EPOCH":21522,"BSTAR":1.9710939e-5,"MEAN_MOTION_DOT":2.6e-7,"MEAN_MOTION_DDOT":0},{"OBJECT_NAME":"STARLINK-3708","OBJECT_ID":"2022-029Z","EPOCH":"2026-01-31T20:27:00.664128","MEAN_MOTION":15.08836227,"ECCENTRICITY":0.0001448,"INCLINATION":53.2156,"RA_OF_ASC_NODE":244.4898,"ARG_OF_PERICENTER":88.0937,"MEAN_ANOMALY":272.0221,"EPHEMERIS_TYPE":0,"CLASSIFICATION_TYPE":"U","NORAD_CAT_ID":52111,"ELEMENT_SET_NO":999,"REV_AT_EPOCH":21522,"BSTAR":-8.477307e-6,"MEAN_MOTION_DOT":-4.23e-6,"MEAN_MOTION_DDOT":0},{"OBJECT_NAME":"STARLINK-3734","OBJECT_ID":"2022-029AA","EPOCH":"2026-01-31T20:37:36.225984","MEAN_MOTION":15.08840593,"ECCENTRICITY":0.00014439,"INCLINATION":53.2162,"RA_OF_ASC_NODE":244.4578,"ARG_OF_PERICENTER":90.4382,"MEAN_ANOMALY":269.6776,"EPHEMERIS_TYPE":0,"CLASSIFICATION_TYPE":"U","NORAD_CAT_ID":52112,"ELEMENT_SET_NO":999,"REV_AT_EPOCH":21522,"BSTAR":5.580592e-5,"MEAN_MOTION_DOT":6.0e-6,"MEAN_MOTION_DDOT":0}]
